[{"OBJECT_NAME":"STARLINK-5670","OBJECT_ID":"2023-013L","EPOCH":"2025-08-26T19:43:15.629952","MEAN_MOTION":15.02536637,"ECCENTRICITY":0.0001389,"INCLINATION":43.0029,"RA_OF_ASC_NODE":279.4125,"ARG_OF_PERICENTER":269.7331,"MEAN_ANOMALY":90.3353,"EPHEMERIS_TYPE":0,"CLASSIFICATION_TYPE":"U","NORAD_CAT_ID":55341,"ELEMENT_SET_NO":999,"REV_AT_EPOCH":14239,"BSTAR":6.6708399e-5,"MEAN_MOTION_DOT":6.98e-6,"MEAN_MOTION_DDOT":0},{"OBJECT_NAME":"STARLINK-5657","OBJECT_ID":"2023-013M","EPOCH":"2025-08-26T19:35:16.055520","MEAN_MOTION":15.02537282,"ECCENTRICITY":0.00011898,"INCLINATION":43.0022,"RA_OF_ASC_NODE":279.3696,"ARG_OF_PERICENTER":274.6326,"MEAN_ANOMALY":85.4381,"EPHEMERIS_TYPE":0,"CLASSIFICATION_TYPE":"U","NORAD_CAT_ID":55342,"ELEMENT_SET_NO":999,"REV_AT_EPOCH":14239,"BSTAR":6.0918058e-5,"MEAN_MOTION_DOT":6.19e-6,"MEAN_MOTION_DDOT":0},{"OBJECT_NAME":"STARLINK-5661","OBJECT_ID":"2023-013N","EPOCH":"2025-08-26T19:27:16.609824","MEAN_MOTION":15.0253624,"ECCENTRICITY":0.00013544,"INCLINATION":43.003,"RA_OF_ASC_NODE":279.327,"ARG_OF_PERICENTER":270.2372,"MEAN_ANOMALY":89.8315,"EPHEMERIS_TYPE":0,"CLASSIFICATION_TYPE":"U","NORAD_CAT_ID":55343,"ELEMENT_SET_NO":999,"REV_AT_EPOCH":14239,"BSTAR":1.153878e-5,"MEAN_MOTION_DOT":-4.8e-7,"MEAN_MOTION_DDOT":0},{"OBJECT_NAME":"STARLINK-5653","OBJECT_ID":"2023-013Q","EPOCH":"2025-08-26T09:53:16.158048","MEAN_MOTION":15.02539622,"ECCENTRICITY":0.00012994,"INCLINATION":43.0031,"RA_OF_ASC_NODE":268.4733,"ARG_OF_PERICENTER":274.6789,"MEAN_ANOMALY":85.3905,"EPHEMERIS_TYPE":0,"CLASSIFICATION_TYPE":"U","NORAD_CAT_ID":55345,"ELEMENT_SET_NO":999,"REV_AT_EPOCH":14248,"BSTAR":5.3822184e-5,"MEAN_MOTION_DOT":5.24e-6,"MEAN_MOTION_DDOT":0},{"OBJECT_NAME":"STARLINK-5631","OBJECT_ID":"2023-013R","EPOCH":"2025-08-26T19:24:05.058432","MEAN_MOTION":15.02544218,"ECCENTRICITY":0.00011835,"INCLINATION":43.0034,"RA_OF_ASC_NODE":279.3096,"ARG_OF_PERICENTER":284.117,"MEAN_ANOMALY":75.9541,"EPHEMERIS_TYPE":0,"CLASSIFICATION_TYPE":"U","NORAD_CAT_ID":55346,"ELEMENT_SET_NO":999,"REV_AT_EPOCH":14239,"BSTAR":-3.1571554e-5,"MEAN_MOTION_DOT":-6.3e-6,"MEAN_MOTION_DDOT":0},{"OBJECT_NAME":"STARLINK-5663","OBJECT_ID":"2023-013S","EPOCH":"2025-08-26T19:06:30.011616","MEAN_MOTION":15.02535636,"ECCENTRICITY":0.00014518,"INCLINATION":43.0036,"RA_OF_ASC_NODE":279.218,"ARG_OF_PERICENTER":271.5178,"MEAN_ANOMALY":88.5498,"EPHEMERIS_TYPE":0,"CLASSIFICATION_TYPE":"U","NORAD_CAT_ID":55347,"ELEMENT_SET_NO":999,"REV_AT_EPOCH":14239,"BSTAR":3.0303081e-5,"MEAN_MOTION_DOT":2.06e-6,"MEAN_MOTION_DDOT":0},{"OBJECT_NAME":"STARLINK-5609","OBJECT_ID":"2023-013T","EPOCH":"2025-08-26T19:19:17.113152","MEAN_MOTION":15.02534599,"ECCENTRICITY":0.00012944,"INCLINATION":43.0036,"RA_OF_ASC_NODE":279.2845,"ARG_OF_PERICENTER":273.8734,"MEAN_ANOMALY":86.196,"EPHEMERIS_TYPE":0,"CLASSIFICATION_TYPE":"U","NORAD_CAT_ID":55348,"ELEMENT_SET_NO":999,"REV_AT_EPOCH":14239,"BSTAR":2.0009654e-5,"MEAN_MOTION_DOT":6.7e-7,"MEAN_MOTION_DDOT":0},{"OBJECT_NAME":"STARLINK-5666","OBJECT_ID":"2023-013U","EPOCH":"2025-08-26T19:14:27.553920","MEAN_MOTION":15.02556217,"ECCENTRICITY":0.00013171,"INCLINATION":43.0036,"RA_OF_ASC_NODE":279.2601,"ARG_OF_PERICENTER":268.7502,"MEAN_ANOMALY":91.319,"EPHEMERIS_TYPE":0,"CLASSIFICATION_TYPE":"U","NORAD_CAT_ID":55349,"ELEMENT_SET_NO":999,"REV_AT_EPOCH":14239,"BSTAR":0.00022844349,"MEAN_MOTION_DOT":2.885e-5,"MEAN_MOTION_DDOT":0},{"OBJECT_NAME":"STARLINK-5668","OBJECT_ID":"2023-013V","EPOCH":"2025-08-26T19:09:41.509440","MEAN_MOTION":15.02537223,"ECCENTRICITY":0.00014994,"INCLINATION":43.0034,"RA_OF_ASC_NODE":279.2363,"ARG_OF_PERICENTER":271.6204,"MEAN_ANOMALY":88.4467,"EPHEMERIS_TYPE":0,"CLASSIFICATION_TYPE":"U","NORAD_CAT_ID":55350,"ELEMENT_SET_NO":999,"REV_AT_EPOCH":14239,"BSTAR":4.7250128e-5,"MEAN_MOTION_DOT":4.35e-6,"MEAN_MOTION_DDOT":0},{"OBJECT_NAME":"STARLINK-5659","OBJECT_ID":"2023-013W","EPOCH":"2025-08-26T14:06:31.666464","MEAN_MOTION":15.02536412,"ECCENTRICITY":0.00011033,"INCLINATION":43.0031,"RA_OF_ASC_NODE":280.2329,"ARG_OF_PERICENTER":271.0494,"MEAN_ANOMALY":89.0222,"EPHEMERIS_TYPE":0,"CLASSIFICATION_TYPE":"U","NORAD_CAT_ID":55351,"ELEMENT_SET_NO":999,"REV_AT_EPOCH":14236,"BSTAR":3.1302164e-5,"MEAN_MOTION_DOT":2.19e-6,"MEAN_MOTION_DDOT":0},{"OBJECT_NAME":"STARLINK-5547","OBJECT_ID":"2023-013X","EPOCH":"2025-08-26T14:14:31.113024","MEAN_MOTION":15.02537503,"ECCENTRICITY":0.00012094,"INCLINATION":43.0033,"RA_OF_ASC_NODE":280.276,"ARG_OF_PERICENTER":264.4797,"MEAN_ANOMALY":95.5907,"EPHEMERIS_TYPE":0,"CLASSIFICATION_TYPE":"U","NORAD_CAT_ID":55352,"ELEMENT_SET_NO":999,"REV_AT_EPOCH":14236,"BSTAR":4.1533594e-5,"MEAN_MOTION_DOT":3.57e-6,"MEAN_MOTION_DDOT":0},{"OBJECT_NAME":"STARLINK-5608","OBJECT_ID":"2023-013Y","EPOCH":"2025-08-26T20:08:39.609312","MEAN_MOTION":15.02538398,"ECCENTRICITY":0.00014982,"INCLINATION":43.0035,"RA_OF_ASC_NODE":278.6804,"ARG_OF_PERICENTER":276.0795,"MEAN_ANOMALY":83.9877,"EPHEMERIS_TYPE":0,"CLASSIFICATION_TYPE":"U","NORAD_CAT_ID":55353,"ELEMENT_SET_NO":999,"REV_AT_EPOCH":14240,"BSTAR":9.3216763e-5,"MEAN_MOTION_DOT":1.056e-5,"MEAN_MOTION_DDOT":0},{"OBJECT_NAME":"STARLINK-5649","OBJECT_ID":"2023-013Z","EPOCH":"2025-08-26T10:59:52.209024","MEAN_MOTION":15.02533319,"ECCENTRICITY":0.00013557,"INCLINATION":43.0034,"RA_OF_ASC_NODE":280.9822,"ARG_OF_PERICENTER":268.5647,"MEAN_ANOMALY":91.504,"EPHEMERIS_TYPE":0,"CLASSIFICATION_TYPE":"U","NORAD_CAT_ID":55354,"ELEMENT_SET_NO":999,"REV_AT_EPOCH":14234,"BSTAR":6.8343762e-5,"MEAN_MOTION_DOT":7.2e-6,"MEAN_MOTION_DDOT":0},{"OBJECT_NAME":"STARLINK-5647","OBJECT_ID":"2023-013AA","EPOCH":"2025-08-26T13:56:55.755168","MEAN_MOTION":15.0253992,"ECCENTRICITY":0.00011035,"INCLINATION":43.0028,"RA_OF_ASC_NODE":280.1718,"ARG_OF_PERICENTER":273.3351,"MEAN_ANOMALY":86.7365,"EPHEMERIS_TYPE":0,"CLASSIFICATION_TYPE":"U","NORAD_CAT_ID":55355,"ELEMENT_SET_NO":999,"REV_AT_EPOCH":14235,"BSTAR":2.2240294e-5,"MEAN_MOTION_DOT":9.7e-7,"MEAN_MOTION_DDOT":0},{"OBJECT_NAME":"STARLINK-5651","OBJECT_ID":"2023-013AC","EPOCH":"2025-08-26T13:58:32.319264","MEAN_MOTION":15.02534921,"ECCENTRICITY":0.00012432,"INCLINATION":43.0034,"RA_OF_ASC_NODE":280.1912,"ARG_OF_PERICENTER":268.6963,"MEAN_ANOMALY":91.3736,"EPHEMERIS_TYPE":0,"CLASSIFICATION_TYPE":"U","NORAD_CAT_ID":55357,"ELEMENT_SET_NO":999,"REV_AT_EPOCH":14236,"BSTAR":9.0908635e-5,"MEAN_MOTION_DOT":1.025e-5,"MEAN_MOTION_DDOT":0},{"OBJECT_NAME":"STARLINK-5622","OBJECT_ID":"2023-013AD","EPOCH":"2025-08-26T10:50:18.294432","MEAN_MOTION":15.02523116,"ECCENTRICITY":0.00012756,"INCLINATION":43.0023,"RA_OF_ASC_NODE":280.9333,"ARG_OF_PERICENTER":267.1026,"MEAN_ANOMALY":92.967,"EPHEMERIS_TYPE":0,"CLASSIFICATION_TYPE":"U","NORAD_CAT_ID":55358,"ELEMENT_SET_NO":999,"REV_AT_EPOCH":14234,"BSTAR":7.4746175e-5,"MEAN_MOTION_DOT":8.06e-6,"MEAN_MOTION_DDOT":0}]
