STARLINK-5670           
1 55341U 23013L   25238.82170868  .00000698  00000+0  66708-4 0  9990
2 55341  43.0029 279.4125 0001389 269.7331  90.3353 15.02536637142390
STARLINK-5657           
1 55342U 23013M   25238.81615805  .00000619  00000+0  60918-4 0  9995
2 55342  43.0022 279.3696 0001189 274.6326  85.4381 15.02537282142396
STARLINK-5661           
1 55343U 23013N   25238.81060891 -.00000048  00000+0  11539-4 0  9997
2 55343  43.0030 279.3270 0001354 270.2372  89.8315 15.02536240142399
STARLINK-5653           
1 55345U 23013Q   25238.41199257  .00000524  00000+0  53822-4 0  9993
2 55345  43.0031 268.4733 0001299 274.6789  85.3905 15.02539622142486
STARLINK-5631           
1 55346U 23013R   25238.80839188 -.00000630  00000+0 -31572-4 0  9999
2 55346  43.0034 279.3096 0001183 284.1170  75.9541 15.02544218142393
STARLINK-5663           
1 55347U 23013S   25238.79618069  .00000206  00000+0  30303-4 0  9999
2 55347  43.0036 279.2180 0001451 271.5178  88.5498 15.02535636142390
STARLINK-5609           
1 55348U 23013T   25238.80505918  .00000067  00000+0  20010-4 0  9999
2 55348  43.0036 279.2845 0001294 273.8734  86.1960 15.02534599142392
STARLINK-5666           
1 55349U 23013U   25238.80170780  .00002885  00000+0  22844-3 0  9991
2 55349  43.0036 279.2601 0001317 268.7502  91.3190 15.02556217142399
STARLINK-5668           
1 55350U 23013V   25238.79839710  .00000435  00000+0  47250-4 0  9994
2 55350  43.0034 279.2363 0001499 271.6204  88.4467 15.02537223142397
STARLINK-5659           
1 55351U 23013W   25238.58786651  .00000219  00000+0  31302-4 0  9998
2 55351  43.0031 280.2329 0001103 271.0494  89.0222 15.02536412142368
STARLINK-5547           
1 55352U 23013X   25238.59341566  .00000357  00000+0  41534-4 0  9993
2 55352  43.0033 280.2760 0001209 264.4797  95.5907 15.02537503142363
STARLINK-5608           
1 55353U 23013Y   25238.83934733  .00001056  00000+0  93217-4 0  9997
2 55353  43.0035 278.6804 0001498 276.0795  83.9877 15.02538398142408
STARLINK-5649           
1 55354U 23013Z   25238.45824316  .00000720  00000+0  68344-4 0  9991
2 55354  43.0034 280.9822 0001355 268.5647  91.5040 15.02533319142346
STARLINK-5647           
1 55355U 23013AA  25238.58120087  .00000097  00000+0  22240-4 0  9992
2 55355  43.0028 280.1718 0001103 273.3351  86.7365 15.02539920142354
STARLINK-5651           
1 55357U 23013AC  25238.58231851  .00001025  00000+0  90909-4 0  9995
2 55357  43.0034 280.1912 0001243 268.6963  91.3736 15.02534921142361
STARLINK-5622           
1 55358U 23013AD  25238.45160063  .00000806  00000+0  74746-4 0  9995
2 55358  43.0023 280.9333 0001275 267.1026  92.9670 15.02523116142340
